OBJECT_NAME,OBJECT_ID,EPOCH,MEAN_MOTION,ECCENTRICITY,INCLINATION,RA_OF_ASC_NODE,ARG_OF_PERICENTER,MEAN_ANOMALY,EPHEMERIS_TYPE,CLASSIFICATION_TYPE,NORAD_CAT_ID,ELEMENT_SET_NO,REV_AT_EPOCH,BSTAR,MEAN_MOTION_DOT,MEAN_MOTION_DDOT
STARLINK-30296,2023-124J,2026-06-07T10:17:42.886176,15.30194952,.0001023,53.1590,150.1839,79.2473,280.8643,0,U,57671,999,15730,-.59072E-4,-.2108E-4,0
STARLINK-30274,2023-124K,2026-06-07T11:29:00.189888,15.30172498,.0001317,53.1593,149.8858,85.2576,274.8575,0,U,57672,999,15731,.65768E-4,.1588E-4,0
STARLINK-30316,2023-124L,2026-06-07T05:43:08.958432,15.30187193,.0001223,53.1608,151.1326,89.8773,270.2368,0,U,57673,999,15727,.15698E-4,.106E-5,0
STARLINK-30313,2023-124P,2026-06-07T05:17:20.281632,15.30179854,.0001506,53.1606,151.1204,85.7454,274.3719,0,U,57676,999,15727,.10866E-3,.2858E-4,0
STARLINK-30303,2023-124Q,2026-06-07T05:49:04.434816,15.30193891,.0001089,53.1593,150.5143,83.7174,276.3951,0,U,57677,999,15728,-.1012E-4,-.659E-5,0
STARLINK-30320,2023-124R,2026-06-07T05:22:59.526048,15.34395781,.0001194,53.1592,137.6601,88.7411,271.3729,0,U,57678,999,15746,.1032E-3,.3111E-4,0
STARLINK-30321,2023-124S,2026-06-07T06:04:18.704928,15.30173364,.0002986,53.1597,150.5845,96.2887,263.8454,0,U,57679,999,15728,-.36349E-4,-.1436E-4,0
STARLINK-30283,2023-124T,2026-06-07T05:26:27.351744,15.30183063,.0001022,53.1586,151.0946,87.4935,272.6182,0,U,57680,999,15727,-.18798E-4,-.915E-5,0
STARLINK-30273,2023-124U,2026-06-07T05:19:04.226016,15.31694445,.0001585,53.1600,150.7876,90.8711,269.2472,0,U,57681,999,15727,.12006E-4,.7E-7,0
STARLINK-30297,2023-124V,2026-06-07T05:21:54.212832,15.30185373,.0001383,53.1611,151.1408,96.5756,263.5402,0,U,57682,999,15727,-.25194E-4,-.1105E-4,0
STARLINK-30295,2023-124W,2026-06-07T05:40:06.891168,15.30186946,.0001398,53.1604,151.1318,101.9670,258.1487,0,U,57683,999,15727,.23907E-6,-.352E-5,0
STARLINK-30288,2023-129A,2026-06-06T18:46:08.145408,15.27579824,.00012136,43.0058,335.1362,269.7431,90.3282,0,U,57698,999,15430,.20655385E-4,.306E-5,0
STARLINK-30347,2023-129B,2026-06-06T17:46:59.157408,15.27583138,.00005075,42.9980,323.7529,200.0127,160.0705,0,U,57699,999,15443,.3451669E-4,.688E-5,0
STARLINK-30332,2023-129C,2026-06-07T11:03:15.812352,15.27593872,.0001703,43.0007,338.4255,271.0213,89.0443,0,U,57700,999,15418,.28047E-3,.7467E-4,0
STARLINK-30345,2023-129D,2026-06-07T04:53:25.154304,15.27579559,.0001311,43.0045,332.2969,274.8618,85.2084,0,U,57701,999,15423,.77218E-4,.1863E-4,0
STARLINK-30333,2023-129E,2026-06-07T04:25:40.404288,15.27577201,.0001796,42.9990,332.1500,264.4577,95.6070,0,U,57702,999,15437,.10654E-3,.267E-4,0
STARLINK-30336,2023-129F,2026-06-06T05:30:18.440640,15.27591942,.00025023,43.0046,337.8860,275.4437,84.6129,0,U,57703,999,15408,.78788866E-4,.1907E-4,0
STARLINK-30346,2023-129G,2026-06-07T04:36:46.671840,15.27574515,.0000983,43.0027,332.2062,266.0334,94.0405,0,U,57704,999,15423,.3642E-5,-.162E-5,0
STARLINK-30327,2023-129K,2026-06-07T12:00:04.000320,15.37569428,.0028948,42.9972,294.7118,311.9382,309.1146,0,U,57707,999,581,.18029E-2,.69232E-3,0
STARLINK-30315,2023-129L,2026-06-07T04:57:07.775136,15.27573781,.0001734,43.0043,332.3082,259.2423,100.8234,0,U,57708,999,15437,.46906E-4,.1028E-4,0
STARLINK-30287,2023-129M,2026-06-07T04:42:19.511424,15.27576834,.0001404,43.0044,332.2339,256.1482,103.9213,0,U,57709,999,15437,.29934E-4,.562E-5,0
STARLINK-30335,2023-129N,2026-06-07T04:47:52.928160,15.27573936,.0001132,43.0041,332.2589,264.5820,95.4902,0,U,57710,999,15437,.49416E-4,.1098E-4,0
STARLINK-30318,2023-129P,2026-06-07T04:31:15.001248,15.27561863,.0000452,43.0023,332.1628,312.3305,47.7508,0,U,57711,999,15423,.13167E-4,.1E-5,0
STARLINK-30348,2023-129Q,2026-06-06T18:14:40.302816,15.27601238,.00018681,43.0052,334.9754,242.7825,117.2837,0,U,57712,999,15430,.8011138E-3,.21863E-3,0
STARLINK-30349,2023-129R,2026-06-05T23:35:54.508128,15.27584163,.0002024,43.0047,339.4555,251.2256,108.8376,0,U,57713,999,15404,.61634E-4,.1434E-4,0
STARLINK-30341,2023-129S,2026-06-06T05:22:13.923264,15.27567237,.00012867,43.0055,341.2270,268.0999,91.9705,0,U,57714,999,15418,-.12960341E-4,-.619E-5,0
STARLINK-30300,2023-129T,2026-06-07T05:08:11.989824,15.27599226,.0003142,43.0083,332.3603,259.6973,100.3525,0,U,57715,999,15437,.13086E-3,.3342E-4,0
STARLINK-30281,2023-129U,2026-06-07T04:05:30.691968,15.27590204,.000191,43.0083,332.8891,273.1315,86.9318,0,U,57716,999,15422,.85367E-4,.2088E-4,0
STARLINK-30325,2023-129V,2026-06-06T18:20:14.390880,15.27598313,.00020399,43.0036,335.0029,257.1988,102.8636,0,U,57717,999,15430,.56367075E-3,.1529E-3,0
STARLINK-30338,2023-129W,2026-06-06T18:35:02.155200,15.27575106,.00022586,43.0052,335.0757,269.4411,90.6182,0,U,57718,999,15430,.4295986E-5,-.144E-5,0
