STARLINK-30296          
1 57671U 23124J   26158.42896859 -.00002108  00000+0 -59072-4 0  9990
2 57671  53.1590 150.1839 0001023  79.2473 280.8643 15.30194952157302
STARLINK-30274          
1 57672U 23124K   26158.47847442  .00001588  00000+0  65768-4 0  9998
2 57672  53.1593 149.8858 0001317  85.2576 274.8575 15.30172498157318
STARLINK-30316          
1 57673U 23124L   26158.23829813  .00000106  00000+0  15698-4 0  9997
2 57673  53.1608 151.1326 0001223  89.8773 270.2368 15.30187193157270
STARLINK-30313          
1 57676U 23124P   26158.22037363  .00002858  00000+0  10866-3 0  9997
2 57676  53.1606 151.1204 0001506  85.7454 274.3719 15.30179854157271
STARLINK-30303          
1 57677U 23124Q   26158.24241244 -.00000659  00000+0 -10120-4 0  9998
2 57677  53.1593 150.5143 0001089  83.7174 276.3951 15.30193891157283
STARLINK-30320          
1 57678U 23124R   26158.22430007  .00003111  00000+0  10320-3 0  9999
2 57678  53.1592 137.6601 0001194  88.7411 271.3729 15.34395781157468
STARLINK-30321          
1 57679U 23124S   26158.25299427 -.00001436  00000+0 -36349-4 0  9992
2 57679  53.1597 150.5845 0002986  96.2887 263.8454 15.30173364157287
STARLINK-30283          
1 57680U 23124T   26158.22670546 -.00000915  00000+0 -18798-4 0  9995
2 57680  53.1586 151.0946 0001022  87.4935 272.6182 15.30183063157273
STARLINK-30273          
1 57681U 23124U   26158.22157669  .00000007  00000+0  12006-4 0  9998
2 57681  53.1600 150.7876 0001585  90.8711 269.2472 15.31694445157279
STARLINK-30297          
1 57682U 23124V   26158.22354413 -.00001105  00000+0 -25194-4 0  9999
2 57682  53.1611 151.1408 0001383  96.5756 263.5402 15.30185373157270
STARLINK-30295          
1 57683U 23124W   26158.23619087 -.00000352  00000+0  23907-6 0  9996
2 57683  53.1604 151.1318 0001398 101.9670 258.1487 15.30186946157275
STARLINK-30288          
1 57698U 23129A   26157.78203872  .00000306  00000+0  20655-4 0  9990
2 57698  43.0058 335.1362 0001213 269.7431  90.3282 15.27579824154306
STARLINK-30347          
1 57699U 23129B   26157.74096247  .00000688  00000+0  34517-4 0  9998
2 57699  42.9980 323.7529 0000507 200.0127 160.0705 15.27583138154434
STARLINK-30332          
1 57700U 23129C   26158.46059968  .00007467  00000+0  28047-3 0  9992
2 57700  43.0007 338.4255 0001703 271.0213  89.0443 15.27593872154188
STARLINK-30345          
1 57701U 23129D   26158.20376336  .00001863  00000+0  77218-4 0  9995
2 57701  43.0045 332.2969 0001311 274.8618  85.2084 15.27579559154231
STARLINK-30333          
1 57702U 23129E   26158.18449542  .00002670  00000+0  10654-3 0  9990
2 57702  42.9990 332.1500 0001796 264.4577  95.6070 15.27577201154372
STARLINK-30336          
1 57703U 23129F   26157.22938010  .00001907  00000+0  78789-4 0  9994
2 57703  43.0046 337.8860 0002502 275.4437  84.6129 15.27591942154080
STARLINK-30346          
1 57704U 23129G   26158.19220685 -.00000162  00000+0  36420-5 0  9994
2 57704  43.0027 332.2062 0000983 266.0334  94.0405 15.27574515154232
STARLINK-30327          
1 57707U 23129K   26158.50004630  .00069232  00000+0  18029-2 0  9996
2 57707  42.9972 294.7118 0028948 311.9382 309.1146 15.37569428  5819
STARLINK-30315          
1 57708U 23129L   26158.20633999  .00001028  00000+0  46906-4 0  9996
2 57708  43.0043 332.3082 0001734 259.2423 100.8234 15.27573781154370
STARLINK-30287          
1 57709U 23129M   26158.19605916  .00000562  00000+0  29934-4 0  9997
2 57709  43.0044 332.2339 0001404 256.1482 103.9213 15.27576834154374
STARLINK-30335          
1 57710U 23129N   26158.19991815  .00001098  00000+0  49416-4 0  9997
2 57710  43.0041 332.2589 0001132 264.5820  95.4902 15.27573936154377
STARLINK-30318          
1 57711U 23129P   26158.18836807  .00000100  00000+0  13167-4 0  9993
2 57711  43.0023 332.1628 0000452 312.3305  47.7508 15.27561863154238
STARLINK-30348          
1 57712U 23129Q   26157.76018869  .00021863  00000+0  80111-3 0  9998
2 57712  43.0052 334.9754 0001868 242.7825 117.2837 15.27601238154303
STARLINK-30349          
1 57713U 23129R   26156.98326977  .00001434  00000+0  61634-4 0  9996
2 57713  43.0047 339.4555 0002024 251.2256 108.8376 15.27584163154047
STARLINK-30341          
1 57714U 23129S   26157.22377226 -.00000619  00000+0 -12960-4 0  9992
2 57714  43.0055 341.2270 0001286 268.0999  91.9705 15.27567237154187
STARLINK-30300          
1 57715U 23129T   26158.21402766  .00003342  00000+0  13086-3 0  9994
2 57715  43.0083 332.3603 0003142 259.6973 100.3525 15.27599226154370
STARLINK-30281          
1 57716U 23129U   26158.17049412  .00002088  00000+0  85367-4 0  9993
2 57716  43.0083 332.8891 0001910 273.1315  86.9318 15.27590204154227
STARLINK-30325          
1 57717U 23129V   26157.76405545  .00015290  00000+0  56367-3 0  9997
2 57717  43.0036 335.0029 0002039 257.1988 102.8636 15.27598313154304
STARLINK-30338          
1 57718U 23129W   26157.77433050 -.00000144  00000+0  42960-5 0  9990
2 57718  43.0052 335.0757 0002258 269.4411  90.6182 15.27575106154306
